{
  "norad_id": 60585,
  "name": "STARLINK-32130",
  "history": [
    {
      "epoch": "2026-03-28T14:27:06.414048Z",
      "apogee_km": 475.9245236450488,
      "perigee_km": 474.5511073320249,
      "latitude_deg": -3.4742924110114806e-05,
      "longitude_deg": 176.6163995214175,
      "height_km": 476.1068884557095,
      "semi_major_axis_km": 6853.374815488536,
      "eccentricity": 0.0001002,
      "inclination_deg": 53.1605,
      "raan_deg": 219.4134,
      "arg_perigee_deg": 87.5444,
      "mean_anomaly_deg": 272.5671,
      "mean_motion_rev_day": 15.30192382
    },
    {
      "epoch": "2026-03-29T01:25:28.728192Z",
      "apogee_km": 475.9334914129904,
      "perigee_km": 474.5299215019086,
      "latitude_deg": 2.1015225115787442e-05,
      "longitude_deg": 9.449825783315193,
      "height_km": 476.0785888197625,
      "semi_major_axis_km": 6853.368706457449,
      "eccentricity": 0.0001024,
      "inclination_deg": 53.1608,
      "raan_deg": 217.2904,
      "arg_perigee_deg": 85.7825,
      "mean_anomaly_deg": 274.3293,
      "mean_motion_rev_day": 15.30194428
    },
    {
      "epoch": "2026-03-30T00:56:16.844640Z",
      "apogee_km": 475.99739344309455,
      "perigee_km": 474.4704624003534,
      "latitude_deg": 5.30755400139512e-05,
      "longitude_deg": 11.235305379062346,
      "height_km": 476.1193360005382,
      "semi_major_axis_km": 6853.370927921724,
      "eccentricity": 0.0001114,
      "inclination_deg": 53.1592,
      "raan_deg": 212.742,
      "arg_perigee_deg": 89.0406,
      "mean_anomaly_deg": 271.0723,
      "mean_motion_rev_day": 15.30193684
    },
    {
      "epoch": "2026-03-30T00:56:16.845504Z",
      "apogee_km": 475.9976675779317,
      "perigee_km": 474.4701882655163,
      "latitude_deg": 4.940283680818148e-05,
      "longitude_deg": 11.23529903279106,
      "height_km": 476.1193314076772,
      "semi_major_axis_km": 6853.370927921724,
      "eccentricity": 0.00011144,
      "inclination_deg": 53.1592,
      "raan_deg": 212.742,
      "arg_perigee_deg": 89.0406,
      "mean_anomaly_deg": 271.0723,
      "mean_motion_rev_day": 15.30193684
    },
    {
      "epoch": "2026-03-30T15:02:45.623616Z",
      "apogee_km": 475.9179972710799,
      "perigee_km": 474.5347144113375,
      "latitude_deg": -4.519103339422943e-06,
      "longitude_deg": 156.30505601471182,
      "height_km": 476.0746824572446,
      "semi_major_axis_km": 6853.363355841208,
      "eccentricity": 0.00010092,
      "inclination_deg": 53.1607,
      "raan_deg": 210.0111,
      "arg_perigee_deg": 85.8394,
      "mean_anomaly_deg": 274.2722,
      "mean_motion_rev_day": 15.3019622
    },
    {
      "epoch": "2026-03-31T14:33:33.893856Z",
      "apogee_km": 476.18934614154296,
      "perigee_km": 474.29096067004957,
      "latitude_deg": 2.4992041320475544e-06,
      "longitude_deg": 158.0901751564783,
      "height_km": 476.214800844008,
      "semi_major_axis_km": 6853.377153405796,
      "eccentricity": 0.0001385,
      "inclination_deg": 53.1629,
      "raan_deg": 205.463,
      "arg_perigee_deg": 94.6178,
      "mean_anomaly_deg": 265.4981,
      "mean_motion_rev_day": 15.30191599
    },
    {
      "epoch": "2026-04-01T14:04:21.502272Z",
      "apogee_km": 476.2244085881939,
      "perigee_km": 474.22596817406156,
      "latitude_deg": -5.7389199680227094e-05,
      "longitude_deg": 159.87460959675323,
      "height_km": 476.3452355049028,
      "semi_major_axis_km": 6853.362188381127,
      "eccentricity": 0.0001458,
      "inclination_deg": 53.1625,
      "raan_deg": 200.9115,
      "arg_perigee_deg": 102.8314,
      "mean_anomaly_deg": 257.2849,
      "mean_motion_rev_day": 15.30196611
    }
  ]
}